[
    {
        "CCSDS_OMM_VERS": "3.0",
        "COMMENT": "GENERATED VIA SPACE-TRACK.ORG API",
        "CREATION_DATE": "2025-03-02T09:28:08",
        "ORIGINATOR": "18 SPCS",
        "OBJECT_NAME": "GALILEO 20 (2C6)",
        "OBJECT_ID": "2017-079B",
        "CENTER_NAME": "EARTH",
        "REF_FRAME": "TEME",
        "TIME_SYSTEM": "UTC",
        "MEAN_ELEMENT_THEORY": "SGP4",
        "EPOCH": "2025-03-01T12:31:22.447776",
        "MEAN_MOTION": "1.70474390",
        "ECCENTRICITY": "0.00015520",
        "INCLINATION": "55.2370",
        "RA_OF_ASC_NODE": "234.5106",
        "ARG_OF_PERICENTER": "327.3134",
        "MEAN_ANOMALY": "32.6385",
        "EPHEMERIS_TYPE": "0",
        "CLASSIFICATION_TYPE": "U",
        "NORAD_CAT_ID": "43056",
        "ELEMENT_SET_NO": "999",
        "REV_AT_EPOCH": "4494",
        "BSTAR": "0.00000000000000",
        "MEAN_MOTION_DOT": "0.00000049",
        "MEAN_MOTION_DDOT": "0.0000000000000",
        "SEMIMAJOR_AXIS": "29600.275",
        "PERIOD": "844.702",
        "APOAPSIS": "23226.734",
        "PERIAPSIS": "23217.546",
        "OBJECT_TYPE": "PAYLOAD",
        "RCS_SIZE": "LARGE",
        "COUNTRY_CODE": "ESA",
        "LAUNCH_DATE": "2017-12-12",
        "SITE": "FRGUI",
        "DECAY_DATE": null,
        "FILE": "4656805",
        "GP_ID": "282048442",
        "TLE_LINE0": "0 GALILEO 20 (2C6)",
        "TLE_LINE1": "1 43056U 17079B   25060.52178759  .00000049  00000-0  00000-0 0  9992",
        "TLE_LINE2": "2 43056  55.2370 234.5106 0001552 327.3134  32.6385  1.70474390 44942"
    }
]